STARLETTE               
1 07646U 75010A   19209.76262896 -.00000137  00000-0  60833-5 0  9990
2 07646  49.8256 313.0069 0205776  33.5834 327.7911 13.82306206246580
LAGEOS 1                
1 08820U 76039A   19209.74481191  .00000036  00000-0  00000-0 0  9998
2 08820 109.8523  37.7027 0044135 120.8697 225.9867  6.38664803752809
AJISAI (EGS)            
1 16908U 86061A   19209.90364212 -.00000100  00000-0 -17195-4 0  9993
2 16908  50.0109 321.6331 0011255 257.5761 222.9690 12.44489977167534
LAGEOS 2                
1 22195U 92070B   19209.87217962 -.00000009  00000-0  00000-0 0  9990
2 22195  52.6668  56.3010 0138343 167.2198  90.6095  6.47293763632798
STELLA                  
1 22824U 93061B   19209.91415895 -.00000046  00000-0  26840-7 0  9998
2 22824  98.9263 188.2485 0005979 336.4088  55.2895 14.27377457346100
LARES                   
1 38077U 12006A   19209.64800505 -.00000023  00000-0  98643-4 0  9993
2 38077  69.4933 269.0049 0011787 252.1041 107.8701 12.54931396341566
